SatCatId,ObjectName,LaunchYear,OrbitalPeriod,LaunchMass,StatusCode,Inclination,Status,UcsData,OrbitClassEstimated,LaunchSiteCountry,Owner,UseType,Purpose,LaunchVehicleClass,TLE1,TLE2,MeanMotion,Eccentricity,OrbitClass
57974,STARLINK-30489,2023,95.84,-1.0,+,43.0,Active,0,LEO,USA,USA,Unknown,Unknown,Unknown,1 57974U 23151L   25170.74968904 -.00000020  00000+0  13607-4 0  9999,2 57974  43.0045 327.2700 0001295 269.7435  90.3259 15.02536403 96129,15.02536403,0.0001295,LEO
57975,STARLINK-30503,2023,95.84,-1.0,+,43.0,Active,0,LEO,USA,USA,Unknown,Unknown,Unknown,1 57975U 23151M   25170.73204592  .00000242  00000+0  33002-4 0  9991,2 57975  43.0049 327.9634 0001356 267.6904  92.3783 15.02533095 96165,15.02533095,0.0001356,LEO
57976,STARLINK-30512,2023,95.84,-1.0,+,43.0,Active,0,LEO,USA,USA,Unknown,Unknown,Unknown,1 57976U 23151N   25170.43505352 -.00001133  00000+0 -68823-4 0  9998,2 57976  43.0039 329.1490 0001279 269.6012  90.4684 15.02536878 96133,15.02536878,0.0001279,LEO
57977,STARLINK-30509,2023,95.84,-1.0,+,43.0,Active,0,LEO,USA,USA,Unknown,Unknown,Unknown,1 57977U 23151P   25169.82437431  .00001438  00000+0  12151-3 0  9990,2 57977  43.0045 345.9439 0001325 265.4158  94.6533 15.02541767 95880,15.02541767,0.0001325,LEO
57978,STARLINK-30511,2023,95.84,-1.0,+,43.01,Active,0,LEO,USA,USA,Unknown,Unknown,Unknown,1 57978U 23151Q   25170.81487880  .00000415  00000+0  45778-4 0  9991,2 57978  43.0049 340.4767 0001228 261.2320  98.8383 15.02536053 96013,15.02536053,0.0001228,LEO
57979,STARLINK-30508,2023,95.84,-1.0,+,43.0,Active,0,LEO,USA,USA,Unknown,Unknown,Unknown,1 57979U 23151R   25170.81152459 -.00037258  00000+0 -27450-2 0  9995,2 57979  43.0130 340.4445 0005112 270.8225  89.2031 15.02696847 95970,15.02696847,0.0005112,LEO
57980,STARLINK-30504,2023,94.37,-1.0,P,43.0,Active,0,LEO,USA,USA,Unknown,Unknown,Unknown,1 57980U 23151S   25170.56165686  .00011540  00000+0  45074-3 0  9992,2 57980  43.0025 278.2825 0001892 277.8937  82.1699 15.25876544 96740,15.25876544,0.0001892,LEO
57981,STARLINK-30510,2023,95.84,-1.0,+,43.01,Active,0,LEO,USA,USA,Unknown,Unknown,Unknown,1 57981U 23151T   25170.20991901  .00000134  00000+0  24968-4 0  9998,2 57981  43.0055 343.6753 0001513 258.4126 101.6547 15.02540832 95949,15.02540832,0.0001513,LEO
57982,STARLINK-30507,2023,95.84,-1.0,+,43.0,Active,0,LEO,USA,USA,Unknown,Unknown,Unknown,1 57982U 23151U   25170.80489030  .00000304  00000+0  37593-4 0  9997,2 57982  43.0047 340.4039 0001239 267.9553  92.1147 15.02533004 96019,15.02533004,0.0001239,LEO
57983,STARLINK-30515,2023,95.84,-1.0,+,43.0,Active,0,LEO,USA,USA,Unknown,Unknown,Unknown,1 57983U 23151V   25170.20326177  .00002283  00000+0  18395-3 0  9990,2 57983  43.0039 343.6303 0001246 260.8570  99.2132 15.02548592 95940,15.02548592,0.0001246,LEO
57984,STARLINK-30516,2023,95.84,-1.0,+,43.0,Active,0,LEO,USA,USA,Unknown,Unknown,Unknown,1 57984U 23151W   25170.46584033  .00000025  00000+0  16918-4 0  9998,2 57984  43.0041 342.1594 0001250 263.0679  97.0021 15.02539063 95980,15.02539063,0.000125,LEO
57985,STARLINK-30519,2023,95.84,-1.0,+,43.0,Active,0,LEO,USA,USA,Unknown,Unknown,Unknown,1 57985U 23151X   25170.46250524  .00001209  00000+0  10456-3 0  9999,2 57985  43.0049 342.1330 0001259 269.6935  90.3763 15.02541391 95923,15.02541391,0.0001259,LEO
57986,YAOGAN-39 03A,2023,94.53,-1.0,+,35.0,Active,0,LEO,PRC,China,Unknown,Unknown,Unknown,1 57986U 23152A   25170.82792429  .00009311  00000+0  38374-3 0  9997,2 57986  34.9998  31.3625 0003023 126.2579 233.8415 15.23332059 95169,15.23332059,0.0003023,LEO
57988,YAOGAN-39 03B,2023,94.95,-1.0,+,34.99,Active,0,LEO,PRC,China,Unknown,Unknown,Unknown,1 57988U 23152C   25170.85067156  .00005171  50654-8  25790-3 0  9991,2 57988  34.9930  35.2236 0010323 265.3141  94.6392 15.16548701 94823,15.16548701,0.0010323,LEO
57990,YAOGAN-39 03C,2023,94.95,-1.0,+,34.99,Active,0,LEO,PRC,China,Unknown,Unknown,Unknown,1 57990U 23152E   25170.84646329  .00005209  00000+0  26194-3 0  9990,2 57990  34.9919  35.1692 0008908  99.2448 260.9272 15.16598486 95098,15.16598486,0.0008908,LEO
57991,STARLINK-30537,2023,95.84,-1.0,+,43.0,Active,0,LEO,USA,USA,Unknown,Unknown,Unknown,1 57991U 23153A   25170.38109288 -.00000207  00000+0 -23096-6 0  9995,2 57991  43.0037  59.8675 0001147 264.0610  96.0101 15.02539401 95160,15.02539401,0.0001147,LEO
57992,STARLINK-30534,2023,95.84,-1.0,+,43.0,Active,0,LEO,USA,USA,Unknown,Unknown,Unknown,1 57992U 23153B   25170.05869869  .00000396  00000+0  44397-4 0  9990,2 57992  43.0041  61.7429 0000430 279.6014  80.4780 15.02538890 95115,15.0253889,4.3e-05,LEO
57993,STARLINK-30536,2023,95.84,-1.0,+,43.0,Active,0,LEO,USA,USA,Unknown,Unknown,Unknown,1 57993U 23153C   25170.37443355  .00000438  00000+0  47468-4 0  9993,2 57993  43.0043  59.8181 0001214 262.6184  97.4521 15.02536838 95269,15.02536838,0.0001214,LEO
57994,STARLINK-30538,2023,95.84,-1.0,+,43.0,Active,0,LEO,USA,USA,Unknown,Unknown,Unknown,1 57994U 23153D   25170.10186708 -.00000142  00000+0  45951-5 0  9990,2 57994  43.0035  61.2061 0001199 273.9851  86.0854 15.02534888 95124,15.02534888,0.0001199,LEO
57995,STARLINK-30517,2023,95.84,-1.0,+,43.01,Active,0,LEO,USA,USA,Unknown,Unknown,Unknown,1 57995U 23153E   25170.09853644 -.00000172  00000+0  23180-5 0  9992,2 57995  43.0051  61.1835 0000733 238.4889 121.5882 15.02537127 95227,15.02537127,7.33e-05,LEO
57997,STARLINK-30523,2023,95.84,-1.0,+,43.0,Active,0,LEO,USA,USA,Unknown,Unknown,Unknown,1 57997U 23153G   25169.97224746  .00000270  00000+0  35057-4 0  9997,2 57997  43.0039  61.9600 0001003 270.3572  89.7156 15.02541846 95208,15.02541846,0.0001003,LEO
57998,STARLINK-30531,2023,95.84,-1.0,+,43.01,Active,0,LEO,USA,USA,Unknown,Unknown,Unknown,1 57998U 23153H   25170.40095656 -.00000736  00000+0 -39399-4 0  9996,2 57998  43.0054  59.1586 0001055 249.3423 110.7307 15.02547791 95271,15.02547791,0.0001055,LEO
57999,STARLINK-30552,2023,95.84,-1.0,+,43.0,Active,0,LEO,USA,USA,Unknown,Unknown,Unknown,1 57999U 23153J   25170.42426855 -.00000334  00000+0 -96662-5 0  9999,2 57999  43.0032  59.3275 0000683 255.0907 104.9859 15.02533512 95275,15.02533512,6.83e-05,LEO
58000,STARLINK-30545,2023,95.84,-1.0,+,43.01,Active,0,LEO,USA,USA,Unknown,Unknown,Unknown,1 58000U 23153K   25170.42093817  .00000029  00000+0  17205-4 0  9995,2 58000  43.0054  59.2994 0000615 245.9444 114.1334 15.02537061 95273,15.02537061,6.15e-05,LEO
58001,STARLINK-30535,2023,95.84,-1.0,+,43.0,Active,0,LEO,USA,USA,Unknown,Unknown,Unknown,1 58001U 23153L   25170.41760195 -.00000101  00000+0  76325-5 0  9996,2 58001  43.0043  59.2751 0001197 262.4952  97.5755 15.02543513 95277,15.02543513,0.0001197,LEO
58002,STARLINK-30540,2023,95.84,-1.0,+,43.0,Active,0,LEO,USA,USA,Unknown,Unknown,Unknown,1 58002U 23153M   25170.05536661 -.00001722  00000+0 -11243-3 0  9993,2 58002  43.0043  61.7015 0001069 266.6600  93.4120 15.02539184 95116,15.02539184,0.0001069,LEO
58003,STARLINK-30546,2023,95.83,-1.0,+,43.0,Active,0,LEO,USA,USA,Unknown,Unknown,Unknown,1 58003U 23153N   25170.41423694 -.00030335  00000+0 -22314-2 0  9997,2 58003  43.0024  59.2513 0001565 263.0566  97.0099 15.02684481 95277,15.02684481,0.0001565,LEO
58004,STARLINK-30539,2023,95.84,-1.0,+,43.0,Active,0,LEO,USA,USA,Unknown,Unknown,Unknown,1 58004U 23153P   25170.41094213  .00000154  00000+0  26486-4 0  9999,2 58004  43.0046  59.2277 0001174 265.2038  94.8670 15.02540426 95273,15.02540426,0.0001174,LEO
58005,STARLINK-30530,2023,95.84,-1.0,+,43.01,Active,0,LEO,USA,USA,Unknown,Unknown,Unknown,1 58005U 23153Q   25170.40428547 -.00000242  00000+0 -28056-5 0  9996,2 58005  43.0053  59.1759 0001106 262.1228  97.9489 15.02540648 95276,15.02540648,0.0001106,LEO
58006,STARLINK-30526,2023,95.84,-1.0,+,43.0,Active,0,LEO,USA,USA,Unknown,Unknown,Unknown,1 58006U 23153R   25170.01936607  .00000043  00000+0  18238-4 0  9992,2 58006  43.0046  36.2574 0001098 272.2108  87.8609 15.02536313 95501,15.02536313,0.0001098,LEO
58007,STARLINK-30527,2023,94.27,-1.0,P,43.0,Active,0,LEO,USA,USA,Unknown,Unknown,Unknown,1 58007U 23153S   25170.46993740  .00000984  00000+0  45287-4 0  9991,2 58007  43.0017 244.9054 0001272 264.1685  95.9022 15.27581455 97207,15.27581455,0.0001272,LEO
58008,STARLINK-30522,2023,95.84,-1.0,+,43.0,Active,0,LEO,USA,USA,Unknown,Unknown,Unknown,1 58008U 23153T   25170.09520475 -.00000175  00000+0  20847-5 0  9991,2 58008  43.0030  61.1504 0001075 260.3020  99.7701 15.02535759 95229,15.02535759,0.0001075,LEO
58009,STARLINK-30486,2023,95.84,-1.0,+,43.0,Active,0,LEO,USA,USA,Unknown,Unknown,Unknown,1 58009U 23153U   25170.40761527 -.00000586  00000+0 -28295-4 0  9993,2 58009  43.0036  59.1977 0001055 257.3475 102.7249 15.02539910 95174,15.0253991,0.0001055,LEO
58010,STARLINK-30520,2023,95.84,-1.0,+,43.0,Active,0,LEO,USA,USA,Unknown,Unknown,Unknown,1 58010U 23153V   25170.39774368 -.00001016  00000+0 -60165-4 0  9991,2 58010  43.0035  59.9709 0000694 210.2219 149.8583 15.02546291 95160,15.02546291,6.94e-05,LEO
58011,STARLINK-30497,2023,95.84,-1.0,+,43.0,Active,0,LEO,USA,USA,Unknown,Unknown,Unknown,1 58011U 23153W   25170.06202383  .00000154  00000+0  26485-4 0  9996,2 58011  43.0049  61.7505 0000954 265.8344  94.2389 15.02534641 95214,15.02534641,9.54e-05,LEO
58012,STARLINK-30525,2023,95.84,-1.0,+,43.0,Active,0,LEO,USA,USA,Unknown,Unknown,Unknown,1 58012U 23153X   25170.38442465 -.00000697  00000+0 -36559-4 0  9996,2 58012  43.0043  59.8678 0001113 261.7081  98.3635 15.02535780 95268,15.0253578,0.0001113,LEO
58016,THEOS-2 (T2V),2023,97.18,-1.0,+,97.9,Active,0,LEO,French Guiana,Thailand,Unknown,Unknown,Unknown,1 58016U 23155A   25170.80150857  .00000734  00000+0  99709-4 0  9996,2 58016  97.8986 241.9667 0001413 103.5469 256.5901 14.81731248 91761,14.81731248,0.0001413,LEO
58017,FORMOSAT-7R (TRITON),2023,96.68,-1.0,+,97.87,Active,0,LEO,French Guiana,Taiwan,Unknown,Unknown,Unknown,1 58017U 23155B   25170.20725316  .00001314  00000+0  14392-3 0  9998,2 58017  97.8653 248.9574 0001700 138.9596 221.1750 14.89466049 92166,14.89466049,0.00017,LEO
